[
    {
        "OBJECT_NAME": "COSMOS 1975",
        "OBJECT_ID": "1988-093A",
        "EPOCH": "2026-05-16T17:50:13.071840",
        "MEAN_MOTION": 15.289032,
        "ECCENTRICITY": 0.0009448,
        "INCLINATION": 82.5214,
        "RA_OF_ASC_NODE": 49.3161,
        "ARG_OF_PERICENTER": 295.8657,
        "MEAN_ANOMALY": 64.1608,
        "EPHEMERIS_TYPE": 0,
        "CLASSIFICATION_TYPE": "U",
        "NORAD_CAT_ID": 19573,
        "ELEMENT_SET_NO": 999,
        "REV_AT_EPOCH": 2980,
        "BSTAR": 0.00017776,
        "MEAN_MOTION_DOT": 5.028e-05,
        "MEAN_MOTION_DDOT": 0
    },
    {
        "OBJECT_NAME": "SL-14 R/B",
        "OBJECT_ID": "1988-093B",
        "EPOCH": "2026-05-16T19:28:23.886048",
        "MEAN_MOTION": 14.85715923,
        "ECCENTRICITY": 0.0020915,
        "INCLINATION": 82.5305,
        "RA_OF_ASC_NODE": 338.1064,
        "ARG_OF_PERICENTER": 168.5413,
        "MEAN_ANOMALY": 202.0261,
        "EPHEMERIS_TYPE": 0,
        "CLASSIFICATION_TYPE": "U",
        "NORAD_CAT_ID": 19574,
        "ELEMENT_SET_NO": 999,
        "REV_AT_EPOCH": 1113,
        "BSTAR": 2.7264e-05,
        "MEAN_MOTION_DOT": 2.62e-06,
        "MEAN_MOTION_DDOT": 0
    },
    {
        "OBJECT_NAME": "SL-16 R/B",
        "OBJECT_ID": "1988-102B",
        "EPOCH": "2026-05-16T15:26:43.844064",
        "MEAN_MOTION": 14.16162062,
        "ECCENTRICITY": 0.0016547,
        "INCLINATION": 71.0009,
        "RA_OF_ASC_NODE": 8.5134,
        "ARG_OF_PERICENTER": 267.6013,
        "MEAN_ANOMALY": 92.3216,
        "EPHEMERIS_TYPE": 0,
        "CLASSIFICATION_TYPE": "U",
        "NORAD_CAT_ID": 19650,
        "ELEMENT_SET_NO": 999,
        "REV_AT_EPOCH": 93651,
        "BSTAR": -8.9509e-05,
        "MEAN_MOTION_DOT": -2.25e-06,
        "MEAN_MOTION_DDOT": 0
    },
    {
        "OBJECT_NAME": "INTERCOSMOS 24",
        "OBJECT_ID": "1989-080A",
        "EPOCH": "2026-05-16T19:13:07.854240",
        "MEAN_MOTION": 12.59615572,
        "ECCENTRICITY": 0.1187918,
        "INCLINATION": 82.6072,
        "RA_OF_ASC_NODE": 60.0594,
        "ARG_OF_PERICENTER": 134.6894,
        "MEAN_ANOMALY": 235.7431,
        "EPHEMERIS_TYPE": 0,
        "CLASSIFICATION_TYPE": "U",
        "NORAD_CAT_ID": 20261,
        "ELEMENT_SET_NO": 999,
        "REV_AT_EPOCH": 67537,
        "BSTAR": 9.9491e-05,
        "MEAN_MOTION_DOT": 3.67e-06,
        "MEAN_MOTION_DDOT": 0
    },
    {
        "OBJECT_NAME": "SL-14 R/B",
        "OBJECT_ID": "1989-080C",
        "EPOCH": "2026-05-16T17:22:11.610336",
        "MEAN_MOTION": 12.50542508,
        "ECCENTRICITY": 0.1230531,
        "INCLINATION": 82.5895,
        "RA_OF_ASC_NODE": 129.5178,
        "ARG_OF_PERICENTER": 29.3377,
        "MEAN_ANOMALY": 337.14,
        "EPHEMERIS_TYPE": 0,
        "CLASSIFICATION_TYPE": "U",
        "NORAD_CAT_ID": 20262,
        "ELEMENT_SET_NO": 999,
        "REV_AT_EPOCH": 66865,
        "BSTAR": 8.3348e-05,
        "MEAN_MOTION_DOT": 2.99e-06,
        "MEAN_MOTION_DDOT": 0
    },
    {
        "OBJECT_NAME": "DELTA 1 R/B",
        "OBJECT_ID": "1989-089B",
        "EPOCH": "2026-05-16T20:04:21.751104",
        "MEAN_MOTION": 14.50708735,
        "ECCENTRICITY": 0.0067279,
        "INCLINATION": 97.0648,
        "RA_OF_ASC_NODE": 333.4085,
        "ARG_OF_PERICENTER": 267.1806,
        "MEAN_ANOMALY": 92.1691,
        "EPHEMERIS_TYPE": 0,
        "CLASSIFICATION_TYPE": "U",
        "NORAD_CAT_ID": 20323,
        "ELEMENT_SET_NO": 999,
        "REV_AT_EPOCH": 90561,
        "BSTAR": 6.1195e-05,
        "MEAN_MOTION_DOT": 2.11e-06,
        "MEAN_MOTION_DDOT": 0
    },
    {
        "OBJECT_NAME": "ARIANE 40 R/B",
        "OBJECT_ID": "1990-005H",
        "EPOCH": "2026-05-16T15:15:33.050016",
        "MEAN_MOTION": 14.39909266,
        "ECCENTRICITY": 0.0010077,
        "INCLINATION": 98.2977,
        "RA_OF_ASC_NODE": 195.2299,
        "ARG_OF_PERICENTER": 8.3222,
        "MEAN_ANOMALY": 351.8132,
        "EPHEMERIS_TYPE": 0,
        "CLASSIFICATION_TYPE": "U",
        "NORAD_CAT_ID": 20443,
        "ELEMENT_SET_NO": 999,
        "REV_AT_EPOCH": 90258,
        "BSTAR": 5.6399e-05,
        "MEAN_MOTION_DOT": 1.35e-06,
        "MEAN_MOTION_DDOT": 0
    },
    {
        "OBJECT_NAME": "DELTA 2 R/B(1)",
        "OBJECT_ID": "1990-008B",
        "EPOCH": "2026-05-16T06:13:10.721568",
        "MEAN_MOTION": 15.64312698,
        "ECCENTRICITY": 0.00708226,
        "INCLINATION": 35.6009,
        "RA_OF_ASC_NODE": 88.4763,
        "ARG_OF_PERICENTER": 175.3784,
        "MEAN_ANOMALY": 184.7621,
        "EPHEMERIS_TYPE": 0,
        "CLASSIFICATION_TYPE": "U",
        "NORAD_CAT_ID": 20453,
        "ELEMENT_SET_NO": 999,
        "REV_AT_EPOCH": 93669,
        "BSTAR": 0.00051924432,
        "MEAN_MOTION_DOT": 0.00059017,
        "MEAN_MOTION_DDOT": 0
    },
    {
        "OBJECT_NAME": "COSMOS 2058",
        "OBJECT_ID": "1990-010A",
        "EPOCH": "2026-05-16T19:56:17.136960",
        "MEAN_MOTION": 15.11818896,
        "ECCENTRICITY": 0.0011022,
        "INCLINATION": 82.4685,
        "RA_OF_ASC_NODE": 340.28,
        "ARG_OF_PERICENTER": 98.1697,
        "MEAN_ANOMALY": 262.0784,
        "EPHEMERIS_TYPE": 0,
        "CLASSIFICATION_TYPE": "U",
        "NORAD_CAT_ID": 20465,
        "ELEMENT_SET_NO": 999,
        "REV_AT_EPOCH": 95253,
        "BSTAR": 0.00012905,
        "MEAN_MOTION_DOT": 2.236e-05,
        "MEAN_MOTION_DDOT": 0
    },
    {
        "OBJECT_NAME": "SL-14 R/B",
        "OBJECT_ID": "1990-010B",
        "EPOCH": "2026-05-16T14:30:12.536064",
        "MEAN_MOTION": 14.83625916,
        "ECCENTRICITY": 0.0021333,
        "INCLINATION": 82.5039,
        "RA_OF_ASC_NODE": 203.6026,
        "ARG_OF_PERICENTER": 77.3739,
        "MEAN_ANOMALY": 282.986,
        "EPHEMERIS_TYPE": 0,
        "CLASSIFICATION_TYPE": "U",
        "NORAD_CAT_ID": 20466,
        "ELEMENT_SET_NO": 999,
        "REV_AT_EPOCH": 93855,
        "BSTAR": 2.7123e-05,
        "MEAN_MOTION_DOT": 2.49e-06,
        "MEAN_MOTION_DDOT": 0
    },
    {
        "OBJECT_NAME": "SL-14 R/B",
        "OBJECT_ID": "1990-018B",
        "EPOCH": "2026-05-16T18:06:56.727072",
        "MEAN_MOTION": 14.82195425,
        "ECCENTRICITY": 0.0015131,
        "INCLINATION": 82.5205,
        "RA_OF_ASC_NODE": 159.4884,
        "ARG_OF_PERICENTER": 223.9525,
        "MEAN_ANOMALY": 136.0487,
        "EPHEMERIS_TYPE": 0,
        "CLASSIFICATION_TYPE": "U",
        "NORAD_CAT_ID": 20511,
        "ELEMENT_SET_NO": 999,
        "REV_AT_EPOCH": 93266,
        "BSTAR": 2.5534e-05,
        "MEAN_MOTION_DOT": 2.27e-06,
        "MEAN_MOTION_DDOT": 0
    },
    {
        "OBJECT_NAME": "HST",
        "OBJECT_ID": "1990-037B",
        "EPOCH": "2026-05-16T18:43:43.117824",
        "MEAN_MOTION": 15.30396884,
        "ECCENTRICITY": 0.0001951,
        "INCLINATION": 28.475,
        "RA_OF_ASC_NODE": 295.1647,
        "ARG_OF_PERICENTER": 139.5958,
        "MEAN_ANOMALY": 220.4783,
        "EPHEMERIS_TYPE": 0,
        "CLASSIFICATION_TYPE": "U",
        "NORAD_CAT_ID": 20580,
        "ELEMENT_SET_NO": 999,
        "REV_AT_EPOCH": 78375,
        "BSTAR": 0.0001659,
        "MEAN_MOTION_DOT": 5.249e-05,
        "MEAN_MOTION_DDOT": 0
    },
    {
        "OBJECT_NAME": "SL-16 R/B",
        "OBJECT_ID": "1990-046B",
        "EPOCH": "2026-05-16T18:33:27.536832",
        "MEAN_MOTION": 14.15023286,
        "ECCENTRICITY": 0.0015214,
        "INCLINATION": 70.9976,
        "RA_OF_ASC_NODE": 154.9242,
        "ARG_OF_PERICENTER": 209.8927,
        "MEAN_ANOMALY": 150.1328,
        "EPHEMERIS_TYPE": 0,
        "CLASSIFICATION_TYPE": "U",
        "NORAD_CAT_ID": 20625,
        "ELEMENT_SET_NO": 999,
        "REV_AT_EPOCH": 85802,
        "BSTAR": -5.1218e-05,
        "MEAN_MOTION_DOT": -1.47e-06,
        "MEAN_MOTION_DDOT": 0
    }
]