COSMOS 1975             
1 19573U 88093A   26136.74320685  .00005028  00000+0  17776-3 0  9991
2 19573  82.5214  49.3161 0009448 295.8657  64.1608 15.28903200 29804
SL-14 R/B               
1 19574U 88093B   26136.81138757  .00000262  00000+0  27264-4 0  9996
2 19574  82.5305 338.1064 0020915 168.5413 202.0261 14.85715923 11135
SL-16 R/B               
1 19650U 88102B   26136.64356301 -.00000225  00000+0 -89509-4 0  9991
2 19650  71.0009   8.5134 0016547 267.6013  92.3216 14.16162062936515
INTERCOSMOS 24          
1 20261U 89080A   26136.80078535  .00000367  00000+0  99491-4 0  9991
2 20261  82.6072  60.0594 1187918 134.6894 235.7431 12.59615572675378
SL-14 R/B               
1 20262U 89080C   26136.72374549  .00000299  00000+0  83348-4 0  9995
2 20262  82.5895 129.5178 1230531  29.3377 337.1400 12.50542508668651
DELTA 1 R/B             
1 20323U 89089B   26136.83636286  .00000211  00000+0  61195-4 0  9993
2 20323  97.0648 333.4085 0067279 267.1806  92.1691 14.50708735905612
ARIANE 40 R/B           
1 20443U 90005H   26136.63579919  .00000135  00000+0  56399-4 0  9998
2 20443  98.2977 195.2299 0010077   8.3222 351.8132 14.39909266902582
DELTA 2 R/B(1)          
1 20453U 90008B   26136.25915187  .00059017  00000+0  51924-3 0  9992
2 20453  35.6009  88.4763 0070822 175.3784 184.7621 15.64312698936696
COSMOS 2058             
1 20465U 90010A   26136.83075390  .00002236  00000+0  12905-3 0  9992
2 20465  82.4685 340.2800 0011022  98.1697 262.0784 15.11818896952536
SL-14 R/B               
1 20466U 90010B   26136.60431176  .00000249  00000+0  27123-4 0  9997
2 20466  82.5039 203.6026 0021333  77.3739 282.9860 14.83625916938554
SL-14 R/B               
1 20511U 90018B   26136.75482323  .00000227  00000+0  25534-4 0  9992
2 20511  82.5205 159.4884 0015131 223.9525 136.0487 14.82195425932667
HST                     
1 20580U 90037B   26136.78036016  .00005249  00000+0  16590-3 0  9996
2 20580  28.4750 295.1647 0001951 139.5958 220.4783 15.30396884783756
SL-16 R/B               
1 20625U 90046B   26136.77323538 -.00000147  00000+0 -51218-4 0  9994
2 20625  70.9976 154.9242 0015214 209.8927 150.1328 14.15023286858027
